{"fetched_at":"2026-03-29T16:36:15Z","count":15609,"tles":[{"name":"STARLINK-33975","line1":"1 63802U 25091AC  26087.89967466  .00026046  00000+0  95209-3 0  9999","line2":"2 63802  43.0004 303.7300 0001508 276.8187  83.2493 15.27599799 51953","category":"Starlink"}]}